{
  "type": "FeatureCollection",
  "features": [
    {
      "type": "Feature",
      "properties": {
        "norad_id": 31246,
        "name": "FENGYUN 1C DEB",
        "group": "fengyun-1c-debris",
        "lat": 80.79803535834664,
        "lon": 135.19420819575365,
        "alt_km": 948.920872912272,
        "timestamp": "2025-12-27T19:21:59.030488+00:00",
        "meta_object_name": "FENGYUN 1C DEB",
        "meta_object_id": "1999-025BMC",
        "meta_epoch": "2025-12-25T19:10:26.013216",
        "meta_mean_motion": 14.07301206,
        "meta_eccentricity": 0.01475516,
        "meta_inclination": 98.8114,
        "meta_ra_of_asc_node": 206.4652,
        "meta_arg_of_pericenter": 307.3273,
        "meta_mean_anomaly": 51.4527,
        "meta_ephemeris_type": 0,
        "meta_classification_type": "U",
        "meta_norad_cat_id": 31246,
        "meta_element_set_no": 999,
        "meta_rev_at_epoch": 61936,
        "meta_bstar": 0.0023125012,
        "meta_mean_motion_dot": 4.244e-05,
        "meta_mean_motion_ddot": 0,
        "tle_line1": "1 31246U 99025BMC 25359.79891219  .00004244  00000+0  23125-2 0  9999",
        "tle_line2": "2 31246  98.8114 206.4652 0147551 307.3273  51.4527 14.07301206619365"
      },
      "geometry": {
        "type": "Point",
        "coordinates": [
          135.19420819575365,
          80.79803535834664
        ]
      }
    },
    {
      "type": "Feature",
      "properties": {
        "norad_id": 31247,
        "name": "FENGYUN 1C DEB",
        "group": "fengyun-1c-debris",
        "lat": -5.251344553827574,
        "lon": -108.65606467062106,
        "alt_km": 840.9593844789906,
        "timestamp": "2025-12-27T19:21:59.030497+00:00",
        "meta_object_name": "FENGYUN 1C DEB",
        "meta_object_id": "1999-025BMD",
        "meta_epoch": "2025-12-26T22:59:01.348800",
        "meta_mean_motion": 14.05170463,
        "meta_eccentricity": 0.0059485,
        "meta_inclination": 99.3663,
        "meta_ra_of_asc_node": 249.5982,
        "meta_arg_of_pericenter": 24.1314,
        "meta_mean_anomaly": 357.1336,
        "meta_ephemeris_type": 0,
        "meta_classification_type": "U",
        "meta_norad_cat_id": 31247,
        "meta_element_set_no": 999,
        "meta_rev_at_epoch": 95721,
        "meta_bstar": 0.0011065,
        "meta_mean_motion_dot": 1.768e-05,
        "meta_mean_motion_ddot": 0,
        "tle_line1": "1 31247U 99025BMD 25360.95765450  .00001768  00000+0  11065-2 0  9995",
        "tle_line2": "2 31247  99.3663 249.5982 0059485  24.1314 357.1336 14.05170463957213"
      },
      "geometry": {
        "type": "Point",
        "coordinates": [
          -108.65606467062106,
          -5.251344553827574
        ]
      }
    },
    {
      "type": "Feature",
      "properties": {
        "norad_id": 31248,
        "name": "FENGYUN 1C DEB",
        "group": "fengyun-1c-debris",
        "lat": -75.70629196498257,
        "lon": -160.55886484394313,
        "alt_km": 847.291852019458,
        "timestamp": "2025-12-27T19:21:59.030506+00:00",
        "meta_object_name": "FENGYUN 1C DEB",
        "meta_object_id": "1999-025BME",
        "meta_epoch": "2025-12-26T02:36:42.397056",
        "meta_mean_motion": 13.92804198,
        "meta_eccentricity": 0.01100359,
        "meta_inclination": 99.2628,
        "meta_ra_of_asc_node": 57.5732,
        "meta_arg_of_pericenter": 274.8692,
        "meta_mean_anomaly": 114.5293,
        "meta_ephemeris_type": 0,
        "meta_classification_type": "U",
        "meta_norad_cat_id": 31248,
        "meta_element_set_no": 999,
        "meta_rev_at_epoch": 95010,
        "meta_bstar": 0.00060879414,
        "meta_mean_motion_dot": 7.82e-06,
        "meta_mean_motion_ddot": 0,
        "tle_line1": "1 31248U 99025BME 25360.10882404  .00000782  00000+0  60879-3 0  9995",
        "tle_line2": "2 31248  99.2628  57.5732 0110035 274.8692 114.5293 13.92804198950108"
      },
      "geometry": {
        "type": "Point",
        "coordinates": [
          -160.55886484394313,
          -75.70629196498257
        ]
      }
    },
    {
      "type": "Feature",
      "properties": {
        "norad_id": 31250,
        "name": "FENGYUN 1C DEB",
        "group": "fengyun-1c-debris",
        "lat": -69.9198089808916,
        "lon": -125.52347308445836,
        "alt_km": 808.9619009876151,
        "timestamp": "2025-12-27T19:21:59.030515+00:00",
        "meta_object_name": "FENGYUN 1C DEB",
        "meta_object_id": "1999-025BMG",
        "meta_epoch": "2025-12-27T07:43:28.494048",
        "meta_mean_motion": 14.03138284,
        "meta_eccentricity": 0.0132943,
        "meta_inclination": 98.3872,
        "meta_ra_of_asc_node": 210.227,
        "meta_arg_of_pericenter": 256.5993,
        "meta_mean_anomaly": 102.0327,
        "meta_ephemeris_type": 0,
        "meta_classification_type": "U",
        "meta_norad_cat_id": 31250,
        "meta_element_set_no": 999,
        "meta_rev_at_epoch": 95722,
        "meta_bstar": 0.0012313,
        "meta_mean_motion_dot": 2.032e-05,
        "meta_mean_motion_ddot": 0,
        "tle_line1": "1 31250U 99025BMG 25361.32185757  .00002032  00000+0  12313-2 0  9999",
        "tle_line2": "2 31250  98.3872 210.2270 0132943 256.5993 102.0327 14.03138284957229"
      },
      "geometry": {
        "type": "Point",
        "coordinates": [
          -125.52347308445836,
          -69.9198089808916
        ]
      }
    },
    {
      "type": "Feature",
      "properties": {
        "norad_id": 31252,
        "name": "FENGYUN 1C DEB",
        "group": "fengyun-1c-debris",
        "lat": -15.58928886780814,
        "lon": -162.10487766685094,
        "alt_km": 704.0987999950248,
        "timestamp": "2025-12-27T19:21:59.030524+00:00",
        "meta_object_name": "FENGYUN 1C DEB",
        "meta_object_id": "1999-025BMJ",
        "meta_epoch": "2025-12-27T06:48:31.129632",
        "meta_mean_motion": 14.40213393,
        "meta_eccentricity": 0.0214501,
        "meta_inclination": 98.3169,
        "meta_ra_of_asc_node": 19.7254,
        "meta_arg_of_pericenter": 128.5141,
        "meta_mean_anomaly": 233.5497,
        "meta_ephemeris_type": 0,
        "meta_classification_type": "U",
        "meta_norad_cat_id": 31252,
        "meta_element_set_no": 999,
        "meta_rev_at_epoch": 97416,
        "meta_bstar": 0.00036372,
        "meta_mean_motion_dot": 1.461e-05,
        "meta_mean_motion_ddot": 0,
        "tle_line1": "1 31252U 99025BMJ 25361.28369363  .00001461  00000+0  36372-3 0  9990",
        "tle_line2": "2 31252  98.3169  19.7254 0214501 128.5141 233.5497 14.40213393974164"
      },
      "geometry": {
        "type": "Point",
        "coordinates": [
          -162.10487766685094,
          -15.58928886780814
        ]
      }
    },
    {
      "type": "Feature",
      "properties": {
        "norad_id": 31253,
        "name": "FENGYUN 1C DEB",
        "group": "fengyun-1c-debris",
        "lat": 49.72267124005186,
        "lon": -102.30678713372915,
        "alt_km": 835.2448462579905,
        "timestamp": "2025-12-27T19:21:59.030533+00:00",
        "meta_object_name": "FENGYUN 1C DEB",
        "meta_object_id": "1999-025BMK",
        "meta_epoch": "2025-12-26T22:15:00.784224",
        "meta_mean_motion": 14.03611752,
        "meta_eccentricity": 0.0290252,
        "meta_inclination": 99.0755,
        "meta_ra_of_asc_node": 65.9415,
        "meta_arg_of_pericenter": 51.5005,
        "meta_mean_anomaly": 311.1812,
        "meta_ephemeris_type": 0,
        "meta_classification_type": "U",
        "meta_norad_cat_id": 31253,
        "meta_element_set_no": 999,
        "meta_rev_at_epoch": 69197,
        "meta_bstar": 0.00021412,
        "meta_mean_motion_dot": 4.42e-06,
        "meta_mean_motion_ddot": 0,
        "tle_line1": "1 31253U 99025BMK 25360.92709241  .00000442  00000+0  21412-3 0  9991",
        "tle_line2": "2 31253  99.0755  65.9415 0290252  51.5005 311.1812 14.03611752691976"
      },
      "geometry": {
        "type": "Point",
        "coordinates": [
          -102.30678713372915,
          49.72267124005186
        ]
      }
    },
    {
      "type": "Feature",
      "properties": {
        "norad_id": 31254,
        "name": "FENGYUN 1C DEB",
        "group": "fengyun-1c-debris",
        "lat": 23.878982887771343,
        "lon": -124.98404845829242,
        "alt_km": 661.1683449448165,
        "timestamp": "2025-12-27T19:21:59.030542+00:00",
        "meta_object_name": "FENGYUN 1C DEB",
        "meta_object_id": "1999-025BML",
        "meta_epoch": "2025-12-27T02:04:36.108192",
        "meta_mean_motion": 14.36404372,
        "meta_eccentricity": 0.01519964,
        "meta_inclination": 98.4608,
        "meta_ra_of_asc_node": 50.5299,
        "meta_arg_of_pericenter": 159.3709,
        "meta_mean_anomaly": 233.3045,
        "meta_ephemeris_type": 0,
        "meta_classification_type": "U",
        "meta_norad_cat_id": 31254,
        "meta_element_set_no": 999,
        "meta_rev_at_epoch": 97722,
        "meta_bstar": 0.00055725183,
        "meta_mean_motion_dot": 1.816e-05,
        "meta_mean_motion_ddot": 0,
        "tle_line1": "1 31254U 99025BML 25361.08652903  .00001816  00000+0  55725-3 0  9992",
        "tle_line2": "2 31254  98.4608  50.5299 0151996 159.3709 233.3045 14.36404372977228"
      },
      "geometry": {
        "type": "Point",
        "coordinates": [
          -124.98404845829242,
          23.878982887771343
        ]
      }
    }
  ]
}